SL-16 R/B               
1 25400U 98043G   26062.76771221  .00000078  00000+0  51592-4 0  9994
2 25400  98.8245  16.0896 0010488  36.6791 323.5105 14.26048137438147
SL-16 R/B               
1 25407U 98045B   26062.78126200 -.00000206  00000+0 -80139-4 0  9990
2 25407  71.0112 193.9979 0006395  17.0539 343.0798 14.16189420426267
ISS (ZARYA)             
1 25544U 98067A   26062.76956237  .00010027  00000+0  19358-3 0  9999
2 25544  51.6317 101.6250 0008204 153.6152 206.5256 15.48425902555413
CZ-4B R/B               
1 25732U 99025C   26062.74920984  .00000081  00000+0  59787-4 0  9991
2 25732  98.6639 107.1713 0037082   3.7679 107.5443 14.18263948387327
OKEAN-O                 
1 25860U 99039A   26062.70373512  .00000895  00000+0  12426-3 0  9994
2 25860  97.9454 122.6557 0001442  71.1339 289.0030 14.80324289433502
SL-16 R/B               
1 25861U 99039B   26062.75677063  .00000796  00000+0  10777-3 0  9995
2 25861  97.9978 121.8620 0013446 277.3941  82.5744 14.81722059435982
DELTA 2 R/B             
1 25876U 99041E   26062.07041024  .00001695  00000+0  31034-3 0  9999
2 25876  51.7651 327.7179 0502356 328.8923  28.3138 14.11813362362092
HELIOS 1B               
1 25977U 99064A   26062.72775808  .00002724  00000+0  30562-3 0  9991
2 25977  98.1703 324.7958 0002502  83.0992 277.0507 14.87668345684376
TERRA                   
1 25994U 99068A   26062.75824642  .00000583  00000+0  12797-3 0  9999
2 25994  97.9606 116.4193 0002299 165.9720 262.2336 14.61007359394214
SL-16 R/B               
1 26070U 00006B   26062.51254993  .00000233  00000+0  14259-3 0  9996
2 26070  71.0014 110.8267 0017215 198.7334 161.3158 14.15824433347684
TITAN 4B R/B            
1 26474U 00047B   26062.79945815  .00005677  00000+0  35565-3 0  9999
2 26474  67.9885  57.0722 0038002  42.3798 318.0275 15.09493071392028
ENVISAT                 
1 27386U 02009A   26062.83543984  .00000174  00000+0  70207-4 0  9998
2 27386  98.3719  16.5725 0001333  84.6244 308.1164 14.39034374258331
